[{"OBJECT_NAME":"IRIDIUM 124","OBJECT_ID":"2017-039H","EPOCH":"2026-03-04T02:03:28.575360","MEAN_MOTION":14.43269079,"ECCENTRICITY":0.0002105,"INCLINATION":86.4539,"RA_OF_ASC_NODE":334.3161,"ARG_OF_PERICENTER":84.2149,"MEAN_ANOMALY":275.9292,"EPHEMERIS_TYPE":0,"CLASSIFICATION_TYPE":"U","NORAD_CAT_ID":42810,"ELEMENT_SET_NO":999,"REV_AT_EPOCH":45995,"BSTAR":0.00016104,"MEAN_MOTION_DOT":5.62e-6,"MEAN_MOTION_DDOT":0},{"OBJECT_NAME":"IRIDIUM 128","OBJECT_ID":"2017-039J","EPOCH":"2026-03-04T01:37:54.634944","MEAN_MOTION":14.34217745,"ECCENTRICITY":0.0002056,"INCLINATION":86.3908,"RA_OF_ASC_NODE":69.0979,"ARG_OF_PERICENTER":95.1901,"MEAN_ANOMALY":264.953,"EPHEMERIS_TYPE":0,"CLASSIFICATION_TYPE":"U","NORAD_CAT_ID":42811,"ELEMENT_SET_NO":999,"REV_AT_EPOCH":45491,"BSTAR":5.1047e-6,"MEAN_MOTION_DOT":3.4e-7,"MEAN_MOTION_DDOT":0},{"OBJECT_NAME":"IRIDIUM 121","OBJECT_ID":"2017-039K","EPOCH":"2026-03-03T11:14:26.947680","MEAN_MOTION":14.34217461,"ECCENTRICITY":0.00021075,"INCLINATION":86.396,"RA_OF_ASC_NODE":37.8387,"ARG_OF_PERICENTER":90.1901,"MEAN_ANOMALY":269.9536,"EPHEMERIS_TYPE":0,"CLASSIFICATION_TYPE":"U","NORAD_CAT_ID":42812,"ELEMENT_SET_NO":999,"REV_AT_EPOCH":45467,"BSTAR":-3.770475e-6,"MEAN_MOTION_DOT":9.0e-8,"MEAN_MOTION_DDOT":0},{"OBJECT_NAME":"IRIDIUM 133","OBJECT_ID":"2017-061A","EPOCH":"2026-03-04T04:04:02.676288","MEAN_MOTION":14.34217616,"ECCENTRICITY":0.0002143,"INCLINATION":86.3911,"RA_OF_ASC_NODE":69.1709,"ARG_OF_PERICENTER":90.3822,"MEAN_ANOMALY":269.7619,"EPHEMERIS_TYPE":0,"CLASSIFICATION_TYPE":"U","NORAD_CAT_ID":42955,"ELEMENT_SET_NO":999,"REV_AT_EPOCH":43972,"BSTAR":3.5328e-6,"MEAN_MOTION_DOT":3.0e-7,"MEAN_MOTION_DDOT":0},{"OBJECT_NAME":"IRIDIUM 100","OBJECT_ID":"2017-061B","EPOCH":"2026-03-04T00:33:58.620096","MEAN_MOTION":14.34217407,"ECCENTRICITY":0.0002039,"INCLINATION":86.3909,"RA_OF_ASC_NODE":69.1531,"ARG_OF_PERICENTER":90.0347,"MEAN_ANOMALY":270.1082,"EPHEMERIS_TYPE":0,"CLASSIFICATION_TYPE":"U","NORAD_CAT_ID":42956,"ELEMENT_SET_NO":999,"REV_AT_EPOCH":43970,"BSTAR":-4.8837e-6,"MEAN_MOTION_DOT":6.0e-8,"MEAN_MOTION_DDOT":0},{"OBJECT_NAME":"IRIDIUM 122","OBJECT_ID":"2017-061C","EPOCH":"2026-03-04T01:28:46.395840","MEAN_MOTION":14.3421828,"ECCENTRICITY":0.0002123,"INCLINATION":86.3908,"RA_OF_ASC_NODE":69.1368,"ARG_OF_PERICENTER":87.9988,"MEAN_ANOMALY":272.1451,"EPHEMERIS_TYPE":0,"CLASSIFICATION_TYPE":"U","NORAD_CAT_ID":42957,"ELEMENT_SET_NO":999,"REV_AT_EPOCH":43971,"BSTAR":3.6742e-5,"MEAN_MOTION_DOT":1.23e-6,"MEAN_MOTION_DDOT":0},{"OBJECT_NAME":"IRIDIUM 129","OBJECT_ID":"2017-061D","EPOCH":"2026-03-04T00:24:50.674752","MEAN_MOTION":14.34218226,"ECCENTRICITY":0.0002552,"INCLINATION":86.391,"RA_OF_ASC_NODE":69.2215,"ARG_OF_PERICENTER":87.2576,"MEAN_ANOMALY":272.8912,"EPHEMERIS_TYPE":0,"CLASSIFICATION_TYPE":"U","NORAD_CAT_ID":42958,"ELEMENT_SET_NO":999,"REV_AT_EPOCH":43972,"BSTAR":2.1725e-5,"MEAN_MOTION_DOT":8.1e-7,"MEAN_MOTION_DDOT":0},{"OBJECT_NAME":"IRIDIUM 119","OBJECT_ID":"2017-061E","EPOCH":"2026-03-04T01:19:38.673408","MEAN_MOTION":14.34217798,"ECCENTRICITY":0.0002251,"INCLINATION":86.3911,"RA_OF_ASC_NODE":69.2008,"ARG_OF_PERICENTER":85.939,"MEAN_ANOMALY":274.2063,"EPHEMERIS_TYPE":0,"CLASSIFICATION_TYPE":"U","NORAD_CAT_ID":42959,"ELEMENT_SET_NO":999,"REV_AT_EPOCH":43974,"BSTAR":3.1561e-6,"MEAN_MOTION_DOT":2.9e-7,"MEAN_MOTION_DDOT":0},{"OBJECT_NAME":"IRIDIUM 107","OBJECT_ID":"2017-061F","EPOCH":"2026-03-04T01:47:02.575968","MEAN_MOTION":14.34217998,"ECCENTRICITY":0.0001899,"INCLINATION":86.3909,"RA_OF_ASC_NODE":69.2135,"ARG_OF_PERICENTER":86.3075,"MEAN_ANOMALY":273.8338,"EPHEMERIS_TYPE":0,"CLASSIFICATION_TYPE":"U","NORAD_CAT_ID":42960,"ELEMENT_SET_NO":999,"REV_AT_EPOCH":43975,"BSTAR":1.2277e-5,"MEAN_MOTION_DOT":5.4e-7,"MEAN_MOTION_DDOT":0},{"OBJECT_NAME":"IRIDIUM 132","OBJECT_ID":"2017-061G","EPOCH":"2026-03-04T01:56:10.549824","MEAN_MOTION":14.34218117,"ECCENTRICITY":0.0002104,"INCLINATION":86.391,"RA_OF_ASC_NODE":69.191,"ARG_OF_PERICENTER":90.2008,"MEAN_ANOMALY":269.9429,"EPHEMERIS_TYPE":0,"CLASSIFICATION_TYPE":"U","NORAD_CAT_ID":42961,"ELEMENT_SET_NO":999,"REV_AT_EPOCH":43975,"BSTAR":2.6317e-5,"MEAN_MOTION_DOT":9.3e-7,"MEAN_MOTION_DDOT":0},{"OBJECT_NAME":"IRIDIUM 136","OBJECT_ID":"2017-061H","EPOCH":"2026-03-04T02:41:50.620416","MEAN_MOTION":14.34217689,"ECCENTRICITY":0.0002056,"INCLINATION":86.3908,"RA_OF_ASC_NODE":69.1839,"ARG_OF_PERICENTER":87.1245,"MEAN_ANOMALY":273.0186,"EPHEMERIS_TYPE":0,"CLASSIFICATION_TYPE":"U","NORAD_CAT_ID":42962,"ELEMENT_SET_NO":999,"REV_AT_EPOCH":43977,"BSTAR":-4.0651e-6,"MEAN_MOTION_DOT":8.0e-8,"MEAN_MOTION_DDOT":0},{"OBJECT_NAME":"IRIDIUM 139","OBJECT_ID":"2017-061J","EPOCH":"2026-03-04T01:10:30.660672","MEAN_MOTION":14.34217814,"ECCENTRICITY":0.0002092,"INCLINATION":86.3911,"RA_OF_ASC_NODE":69.2707,"ARG_OF_PERICENTER":90.8269,"MEAN_ANOMALY":269.3167,"EPHEMERIS_TYPE":0,"CLASSIFICATION_TYPE":"U","NORAD_CAT_ID":42963,"ELEMENT_SET_NO":999,"REV_AT_EPOCH":43977,"BSTAR":4.5562e-6,"MEAN_MOTION_DOT":3.3e-7,"MEAN_MOTION_DDOT":0},{"OBJECT_NAME":"IRIDIUM 125","OBJECT_ID":"2017-061K","EPOCH":"2026-03-04T02:32:42.561888","MEAN_MOTION":14.34218101,"ECCENTRICITY":0.0002032,"INCLINATION":86.3911,"RA_OF_ASC_NODE":69.3061,"ARG_OF_PERICENTER":75.0288,"MEAN_ANOMALY":285.1133,"EPHEMERIS_TYPE":0,"CLASSIFICATION_TYPE":"U","NORAD_CAT_ID":42964,"ELEMENT_SET_NO":999,"REV_AT_EPOCH":43979,"BSTAR":1.6672e-5,"MEAN_MOTION_DOT":6.6e-7,"MEAN_MOTION_DDOT":0},{"OBJECT_NAME":"IRIDIUM 135","OBJECT_ID":"2017-083A","EPOCH":"2026-03-03T19:13:35.618880","MEAN_MOTION":14.34218047,"ECCENTRICITY":0.0002175,"INCLINATION":86.4017,"RA_OF_ASC_NODE":6.052,"ARG_OF_PERICENTER":86.0231,"MEAN_ANOMALY":274.1213,"EPHEMERIS_TYPE":0,"CLASSIFICATION_TYPE":"U","NORAD_CAT_ID":43070,"ELEMENT_SET_NO":999,"REV_AT_EPOCH":42904,"BSTAR":0.00013055,"MEAN_MOTION_DOT":3.85e-6,"MEAN_MOTION_DDOT":0},{"OBJECT_NAME":"IRIDIUM 138","OBJECT_ID":"2017-083B","EPOCH":"2026-03-03T19:50:07.175616","MEAN_MOTION":14.34217985,"ECCENTRICITY":0.00023846,"INCLINATION":86.4029,"RA_OF_ASC_NODE":5.7208,"ARG_OF_PERICENTER":77.4438,"MEAN_ANOMALY":282.7025,"EPHEMERIS_TYPE":0,"CLASSIFICATION_TYPE":"U","NORAD_CAT_ID":43071,"ELEMENT_SET_NO":999,"REV_AT_EPOCH":42903,"BSTAR":1.1955762e-5,"MEAN_MOTION_DOT":5.3e-7,"MEAN_MOTION_DDOT":0},{"OBJECT_NAME":"IRIDIUM 116","OBJECT_ID":"2017-083C","EPOCH":"2026-03-03T19:04:27.166368","MEAN_MOTION":14.34217721,"ECCENTRICITY":0.0001976,"INCLINATION":86.4018,"RA_OF_ASC_NODE":6.0421,"ARG_OF_PERICENTER":93.0058,"MEAN_ANOMALY":267.1364,"EPHEMERIS_TYPE":0,"CLASSIFICATION_TYPE":"U","NORAD_CAT_ID":43072,"ELEMENT_SET_NO":999,"REV_AT_EPOCH":42906,"BSTAR":2.0714e-6,"MEAN_MOTION_DOT":2.6e-7,"MEAN_MOTION_DDOT":0},{"OBJECT_NAME":"IRIDIUM 130","OBJECT_ID":"2017-083D","EPOCH":"2026-03-04T01:00:39.101472","MEAN_MOTION":14.34218029,"ECCENTRICITY":0.0001962,"INCLINATION":86.4015,"RA_OF_ASC_NODE":6.2025,"ARG_OF_PERICENTER":89.4782,"MEAN_ANOMALY":270.6638,"EPHEMERIS_TYPE":0,"CLASSIFICATION_TYPE":"U","NORAD_CAT_ID":43073,"ELEMENT_SET_NO":999,"REV_AT_EPOCH":42904,"BSTAR":4.8376e-5,"MEAN_MOTION_DOT":1.55e-6,"MEAN_MOTION_DDOT":0}]
