IRIDIUM 124             
1 42810U 17039H   26063.08574740  .00000562  00000+0  16104-3 0  9994
2 42810  86.4539 334.3161 0002105  84.2149 275.9292 14.43269079459952
IRIDIUM 128             
1 42811U 17039J   26063.06799346  .00000034  00000+0  51047-5 0  9995
2 42811  86.3908  69.0979 0002056  95.1901 264.9530 14.34217745454910
IRIDIUM 121             
1 42812U 17039K   26062.46836745  .00000009  00000+0 -37705-5 0  9992
2 42812  86.3960  37.8387 0002107  90.1901 269.9536 14.34217461454676
IRIDIUM 133             
1 42955U 17061A   26063.16947542  .00000030  00000+0  35328-5 0  9993
2 42955  86.3911  69.1709 0002143  90.3822 269.7619 14.34217616439721
IRIDIUM 100             
1 42956U 17061B   26063.02359514  .00000006  00000+0 -48837-5 0  9998
2 42956  86.3909  69.1531 0002039  90.0347 270.1082 14.34217407439701
IRIDIUM 122             
1 42957U 17061C   26063.06164810  .00000123  00000+0  36742-4 0  9996
2 42957  86.3908  69.1368 0002123  87.9988 272.1451 14.34218280439712
IRIDIUM 129             
1 42958U 17061D   26063.01725318  .00000081  00000+0  21725-4 0  9996
2 42958  86.3910  69.2215 0002552  87.2576 272.8912 14.34218226439720
IRIDIUM 119             
1 42959U 17061E   26063.05530872  .00000029  00000+0  31561-5 0  9992
2 42959  86.3911  69.2008 0002251  85.9390 274.2063 14.34217798439745
IRIDIUM 107             
1 42960U 17061F   26063.07433537  .00000054  00000+0  12277-4 0  9996
2 42960  86.3909  69.2135 0001899  86.3075 273.8338 14.34217998439750
IRIDIUM 132             
1 42961U 17061G   26063.08067766  .00000093  00000+0  26317-4 0  9998
2 42961  86.3910  69.1910 0002104  90.2008 269.9429 14.34218117439754
IRIDIUM 136             
1 42962U 17061H   26063.11239144  .00000008  00000+0 -40651-5 0  9999
2 42962  86.3908  69.1839 0002056  87.1245 273.0186 14.34217689439777
IRIDIUM 139             
1 42963U 17061J   26063.04896598  .00000033  00000+0  45562-5 0  9997
2 42963  86.3911  69.2707 0002092  90.8269 269.3167 14.34217814439771
IRIDIUM 125             
1 42964U 17061K   26063.10604817  .00000066  00000+0  16672-4 0  9991
2 42964  86.3911  69.3061 0002032  75.0288 285.1133 14.34218101439797
IRIDIUM 135             
1 43070U 17083A   26062.80110670  .00000385  00000+0  13055-3 0  9994
2 43070  86.4017   6.0520 0002175  86.0231 274.1213 14.34218047429043
IRIDIUM 138             
1 43071U 17083B   26062.82647194  .00000053  00000+0  11956-4 0  9994
2 43071  86.4029   5.7208 0002384  77.4438 282.7025 14.34217985429036
IRIDIUM 116             
1 43072U 17083C   26062.79475887  .00000026  00000+0  20714-5 0  9992
2 43072  86.4018   6.0421 0001976  93.0058 267.1364 14.34217721429068
IRIDIUM 130             
1 43073U 17083D   26063.04211923  .00000155  00000+0  48376-4 0  9997
2 43073  86.4015   6.2025 0001962  89.4782 270.6638 14.34218029429049
